[{"OBJECT_NAME":"STARLINK-34710","OBJECT_ID":"2025-190Q","EPOCH":"2026-03-09T13:54:23.343840","MEAN_MOTION":15.30180461,"ECCENTRICITY":0.0001274,"INCLINATION":53.1593,"RA_OF_ASC_NODE":169.0283,"ARG_OF_PERICENTER":74.5628,"MEAN_ANOMALY":285.5514,"EPHEMERIS_TYPE":0,"CLASSIFICATION_TYPE":"U","NORAD_CAT_ID":65365,"ELEMENT_SET_NO":999,"REV_AT_EPOCH":2926,"BSTAR":0.00051091,"MEAN_MOTION_DOT":0.00014793,"MEAN_MOTION_DDOT":0},{"OBJECT_NAME":"OBJECT N","OBJECT_ID":"2019-093N","EPOCH":"2026-03-09T21:41:56.087232","MEAN_MOTION":15.29897693,"ECCENTRICITY":0.0006278,"INCLINATION":98.0505,"RA_OF_ASC_NODE":226.9456,"ARG_OF_PERICENTER":33.3806,"MEAN_ANOMALY":326.7828,"EPHEMERIS_TYPE":0,"CLASSIFICATION_TYPE":"U","NORAD_CAT_ID":44891,"ELEMENT_SET_NO":999,"REV_AT_EPOCH":33957,"BSTAR":0.0010567776,"MEAN_MOTION_DOT":0.00030617,"MEAN_MOTION_DDOT":0}]
